SL-16 R/B               
1 25400U 98043G   26045.43731667  .00000076  00000+0  50632-4 0  9991
2 25400  98.8214 358.6418 0010994  82.6171 277.6258 14.26044194435675
SL-16 R/B               
1 25407U 98045B   26045.47616093  .00000315  00000+0  18314-3 0  9995
2 25407  71.0086 230.3905 0005629  50.5775 309.5846 14.16187597423817
ISS (ZARYA)             
1 25544U 98067A   26045.40804667  .00008682  00000+0  16764-3 0  9992
2 25544  51.6315 187.4424 0011059  97.5886 262.6359 15.48597273552727
CZ-4B R/B               
1 25732U 99025C   26045.10095548  .00000064  00000+0  51588-4 0  9993
2 25732  98.6674  89.9360 0037959  53.9246   0.6771 14.18260492384821
OKEAN-O                 
1 25860U 99039A   26045.12915185  .00000698  00000+0  98535-4 0  9996
2 25860  97.9495 105.2540 0001853  82.8921 277.2502 14.80296158430905
SL-16 R/B               
1 25861U 99039B   26045.13127461  .00000618  00000+0  85215-4 0  9993
2 25861  98.0018 104.2567 0014220 339.0448  21.0180 14.81697750433375
DELTA 2 R/B             
1 25876U 99041E   26045.36307198  .00002270  00000+0  40250-3 0  9999
2 25876  51.7655  34.4343 0502253 279.5273  74.9260 14.11747783359730
HELIOS 1B               
1 25977U 99064A   26045.23967119  .00001951  00000+0  22113-3 0  9990
2 25977  98.1723 306.7912 0002240 105.9520 254.1942 14.87599488681779
TERRA                   
1 25994U 99068A   26045.22578913  .00000517  00000+0  11458-3 0  9999
2 25994  97.9644  99.5508 0001074 232.2326 197.5159 14.60989012391659
SL-16 R/B               
1 26070U 00006B   26045.27355603 -.00000227  00000+0 -90806-4 0  9998
2 26070  71.0028 147.0729 0018139 223.2462 136.7238 14.15819299345245
TITAN 4B R/B            
1 26474U 00047B   26045.43822421  .00003452  00000+0  22064-3 0  9997
2 26474  67.9888 105.8839 0037069  63.8998 296.5958 15.09360954389403
ENVISAT                 
1 27386U 02009A   26045.46787375  .00000145  00000+0  60789-4 0  9994
2 27386  98.3688 359.6241 0001350  87.7408  24.2305 14.39028171255838
